CARTOSAT-2D             
1 41948U 17008A   23007.73806611  .00005315  00000+0  25461-3 0  9990
2 41948  97.4397  69.7005 0005964 344.1000  16.0085 15.19341888326818
SENTINEL-2B             
1 42063U 17013A   23008.40328055  .00000153  00000+0  75130-4 0  9995
2 42063  98.5706  85.2054 0001089  75.2358 284.8949 14.30823052305071
ZHUHAI-1 02 (CAS-4B)    
1 42759U 17034B   23008.28015115  .00008451  00000+0  47046-3 0  9999
2 42759  43.0173 282.2946 0008983 150.4520 355.2518 15.13870903307371
NUSAT-3 (MILANESAT)     
1 42760U 17034C   23008.24669729  .00008135  00000+0  44185-3 0  9993
2 42760  43.0157 275.8457 0009955 175.6396 326.8682 15.14782821307457
ZHUHAI-1 01 (CAS-4A)    
1 42761U 17034D   23008.50614353  .00007359  00000+0  41028-3 0  9996
2 42761  43.0187 279.6804 0009496 155.5953  13.7755 15.13962051307418
CARTOSAT-2E             
1 42767U 17036C   23008.45065972  .00005599  00000+0  26822-3 0  9994
2 42767  97.4292  70.9650 0008955  32.6859 164.1716 15.19299484307488
FORMOSAT-5              
1 42920U 17049A   23008.39808998  .00000353  00000+0  10094-3 0  9992
2 42920  98.3390  87.4053 0010705 346.9712  13.1214 14.50818655284585
SENTINEL-5P             
1 42969U 17064A   23008.30173771  .00000091  00000+0  63857-4 0  9992
2 42969  98.7545 310.3953 0001144  87.3521 272.7786 14.19537164271381
SKYSAT-C11              
1 42987U 17068A   23008.56241102  .00017202  00000+0  43200-3 0  9999
2 42987  97.3088 131.4933 0003595  20.8238 339.3154 15.40050764289926
SKYSAT-C10              
1 42988U 17068B   23008.33600667  .00017069  00000+0  42899-3 0  9994
2 42988  97.3138 131.6437 0000911 248.9099 111.2049 15.40034838289914
SKYSAT-C9               
1 42989U 17068C   23007.60444655  .00018435  00000+0  46202-3 0  9997
2 42989  97.3067 129.8959 0002075 107.0579 253.0895 15.40101908289990
SKYSAT-C8               
1 42990U 17068D   23008.57464869  .00017493  00000+0  43861-3 0  9996
2 42990  97.3151 132.3340 0001989 154.4540 205.6805 15.40099549289975
SKYSAT-C7               
1 42991U 17068E   23007.57815341  .00018127  00000+0  45524-3 0  9994
2 42991  97.3152 131.4212 0003991  26.7804 333.3648 15.40037129289828
SKYSAT-C6               
1 42992U 17068F   23008.08962968  .00018252  00000+0  45851-3 0  9992
2 42992  97.3174 132.3678 0003775   4.9352 355.1930 15.40029107289918
CARTOSAT-2F             
1 43111U 18004A   23008.45687682  .00005480  00000+0  26263-3 0  9990
2 43111  97.4241  70.7307 0005125  46.8741   9.5259 15.19317302276676
NUSAT-4 (ADA)           
1 43195U 18015D   23008.40752168  .00024420  00000+0  68429-3 0  9996
2 43195  97.5557 158.6319 0014218  41.0648  43.7383 15.36504326274639
NUSAT-5 (MARYAM)        
1 43204U 18015K   23008.40841905  .00025291  00000+0  69619-3 0  9994
2 43204  97.5562 159.3733 0013598  41.7906  44.8278 15.37060085274273
GAOFEN 1-02             
1 43259U 18031A   23008.51322688  .00001164  00000+0  17406-3 0  9996
2 43259  97.8826  85.4765 0004801  72.3680 287.8064 14.76545924257409
GAOFEN 1-03             
1 43260U 18031B   23008.49164880  .00001095  00000+0  16418-3 0  9998
2 43260  97.8821  85.4102 0006280 129.3332 230.8438 14.76552508257398
GAOFEN 1-04             
1 43262U 18031D   23008.53473749  .00001132  00000+0  16941-3 0  9995
2 43262  97.8826  85.5061 0006479  92.1909 268.0058 14.76561912257397
SENTINEL-3B             
1 43437U 18039A   23007.60217368  .00000179  00000+0  92122-4 0  9993
2 43437  98.6218  76.9822 0001110  75.7263 284.4040 14.26741557244941
GAOFEN 5-01             
1 43461U 18043A   23007.58237241  .00000616  00000+0  14385-3 0  9994
2 43461  98.2937 312.1745 0002647  47.0252 313.1168 14.58147597248402
GAOFEN 6                
1 43484U 18048A   23008.50098537  .00000975  00000+0  14694-3 0  9991
2 43484  97.9148  89.9589 0007308 268.0250  92.0125 14.76585126248099
GAOFEN 11-1             
1 43585U 18063A   23008.45539645  .00008332  00000+0  35030-3 0  9996
2 43585  97.3008  84.3392 0012211 177.4256 239.0907 15.23589022247608
AEOLUS                  
1 43600U 18066A   23008.26254192  .00127560  00000+0  49797-3 0  9997
2 43600  96.7310  15.9543 0011291 116.8199 243.4230 15.86618332253604
ICESAT-2                
1 43613U 18070A   23008.13966259  .00014553  00000+0  52863-3 0  9991
2 43613  92.0052 313.3092 0001375 320.8577  39.2573 15.28252718240631
HYSIS                   
1 43719U 18096A   23008.47396259  .00001438  00000+0  20335-3 0  9997
2 43719  97.9349  76.9918 0000840 223.2711 136.8438 14.78649639221855
KAZSTSAT                
1 43783U 18099AB  23008.43218218  .00001177  00000+0  11459-3 0  9992
2 43783  97.6050  72.6704 0006707 312.0391  48.0258 14.94339837223419
SAUDISAT 5A             
1 43831U 18102A   23008.51162208  .00003503  00000+0  21813-3 0  9997
2 43831  97.4761  81.9123 0013473 188.6133 297.0360 15.10153547225117
SAUDISAT 5B             
1 43833U 18102C   23008.53783589  .00004213  00000+0  25817-3 0  9999
2 43833  97.4798  83.0751 0014278 194.1413 278.6661 15.10620937225173
GAOFEN 10R              
1 44622U 19066A   23008.54598747  .00001722  00000+0  22765-3 0  9998
2 44622  97.9132 309.8617 0003104  74.9060 285.2501 14.81256246176364
CARTOSAT-3              
1 44804U 19081A   23008.41125743  .00003449  00000+0  16669-3 0  9999
2 44804  97.3714  70.4778 0011127 216.7337 266.8241 15.19232258172756
GAOFEN 12-1             
1 44819U 19082A   23008.48577155  .00000555  00000+0  79416-4 0  9996
2 44819  97.8501  29.5519 0001247  86.7940 273.3423 14.80385194168278
CSG-1                   
1 44873U 19092A   23008.49051640 -.00000802  00000+0 -94228-4 0  9999
2 44873  97.8863 194.2436 0001324  77.4894 282.6493 14.82146525165472
NUSAT-7 (SOPHIE)        
1 45017U 20003B   23008.47460860  .00024880  00000+0  60642-3 0  9992
2 45017  97.1886  71.3297 0010206 347.8696 142.0349 15.40836767166721
NUSAT-8 (MARIE)         
1 45018U 20003C   23008.48184287  .00032457  00000+0  68355-3 0  9998
2 45018  97.2023  74.4433 0008770 344.9445 145.1083 15.45167412166835
NUSAT-6 (HYPATIA)       
1 46272U 20061A   23008.56246353  .00013189  00000+0  47971-3 0  9999
2 46272  97.3070  80.3279 0007977  71.5401 288.6709 15.28340820130519
NEMO-HD                 
1 46277U 20061F   23008.46617868  .00004524  00000+0  22084-3 0  9997
2 46277  97.3701  79.1034 0002214 133.0825 355.5472 15.18767464129967
NUSAT-12 (DOROTHY)      
1 46827U 20079A   23008.48945111  .00033099  00000+0  70158-3 0  9998
2 46827  97.1744  80.0705 0005435 281.0657 203.9247 15.44998484121677
NUSAT-9 (ALICE)         
1 46828U 20079B   23008.47921363  .00035438  00000+0  73005-3 0  9994
2 46828  97.1618  79.5457 0002075 344.6584 141.0462 15.45835671121723
NUSAT-11 (CORA)         
1 46829U 20079C   23008.53604211  .00034952  00000+0  71967-3 0  9997
2 46829  97.1674  80.0568 0004317 299.7052 173.0692 15.45846243121724
NUSAT-15 (KATHERINE)    
1 46830U 20079D   23008.47887142  .00034497  00000+0  71508-3 0  9993
2 46830  97.1827  81.5356 0001928 258.8667 229.7830 15.45659854121723
NUSAT-14 (HEDY)         
1 46831U 20079E   23008.44388024  .00035928  00000+0  71756-3 0  9991
2 46831  97.1791  81.4944 0004769 271.5568 143.3981 15.46728987121749
NUSAT-10 (CAROLINE)     
1 46832U 20079F   23008.47469045  .00030867  00000+0  65772-3 0  9996
2 46832  97.1791  80.8944 0004941 295.4104 121.0867 15.44860043121706
NUSAT-13 (EMMY)         
1 46833U 20079G   23008.51229497  .00030317  00000+0  65308-3 0  9992
2 46833  97.1789  80.8433 0005193 297.5948 187.2759 15.44540023121703
NUSAT-17 (MARY)         
1 46835U 20079J   23008.43713464  .00030987  00000+0  66899-3 0  9996
2 46835  97.1785  80.4792 0005780 313.3850 176.8863 15.44466395121671
NUSAT-18 (VERA)         
1 46836U 20079K   23008.53519804  .00032634  00000+0  68588-3 0  9998
2 46836  97.1800  81.1736 0006275 319.2872 152.8723 15.45245856121728
NUSAT-16 (LISE)         
1 46840U 20079P   23008.49113041  .00033975  00000+0  70731-3 0  9993
2 46840  97.1841  81.3656 0003538 314.6556 170.4944 15.45531630121716
SENTINEL-6              
1 46984U 20086A   23008.31214425 -.00000061  00000+0  00000+0 0  9998
2 46984  66.0419 223.5247 0007752 266.0738  93.9390 12.80931709 99604
GAOFEN 12-2             
1 48079U 21026A   23008.52075421  .00000600  00000+0  85499-4 0  9992
2 48079  97.9094   1.0232 0001349  77.9409 282.1949 14.80340862 95969
PLEIADES NEO 3          
1 48268U 21034A   23008.48691360  .00000024  00000+0  96446-5 0  9997
2 48268  97.8933  85.2714 0001291  76.4988 283.6361 14.81673569 91718
NUSAT-19 (ROSALIND)     
1 48905U 21059AC  23008.52128887  .00012166  00000+0  52725-3 0  9996
2 48905  97.5307 142.8401 0010780  78.7890 353.0452 15.22477729 85230
NUSAT-22 (SOFYA)        
1 48919U 21059AS  23008.47911920  .00025160  00000+0  68495-3 0  9992
2 48919  97.3761 145.1491 0013201  28.0917  40.2639 15.37408257 85992
NUSAT-21 (ELISA)        
1 48920U 21059AT  23008.61139065  .00030317  00000+0  71843-3 0  9993
2 48920  97.3717 145.4977 0012184  32.7112  23.1277 15.41627775 86076
NUSAT-20 (GRACE)        
1 48921U 21059AU  23008.61780332  .00028424  00000+0  71365-3 0  9998
2 48921  97.3833 145.8637 0015049  51.5385 319.6860 15.39846355 86049
PLEIADES NEO 4          
1 49070U 21073E   23008.52067221 -.00000235  00000+0 -23299-4 0  9991
2 49070  97.8942  85.3008 0001215  89.7447 270.3931 14.81670875 75434
LANDSAT 9               
1 49260U 21088A   23008.16294212  .00000536  00000+0  12904-3 0  9992
2 49260  98.2061  80.6417 0001277  83.5861 276.5483 14.57116393 68080
CSG-2                   
1 51444U 22008A   23008.45675665  .00000450  00000+0  63037-4 0  9998
2 51444  97.8861 194.2077 0001346  82.6666 277.4720 14.82151777 50587
INS-2TD                 
1 51658U 22013C   23007.47086903  .00010141  00000+0  51268-3 0  9993
2 51658  97.5528  19.5735 0009489 199.1762 160.9115 15.17212930 49577
GAOFEN 12-3             
1 52912U 22069A   23008.53039372  .00001816  00000+0  24331-3 0  9994
2 52912  97.9702 259.7981 0000392 180.8351 179.2880 14.80639342 28821
